$$SOE
2460721.500000000, A.D. 2025-Feb-15 00:00:00.0000, 4.841123942047518E+08, -1.504107183367857E+08, 7.061899278318484E+07,
2460728.500000000, A.D. 2025-Feb-22 00:00:00.0000, 4.876554424303644E+08, -1.418248821904075E+08, 7.026237238633706E+07,
2460735.500000000, A.D. 2025-Mar-01 00:00:00.0000, 4.910228276927638E+08, -1.331880044304491E+08, 6.988043805847786E+07,
2460742.500000000, A.D. 2025-Mar-08 00:00:00.0000, 4.942142109886116E+08, -1.245034323162941E+08, 6.947345103301230E+07,
2460749.500000000, A.D. 2025-Mar-15 00:00:00.0000, 4.972293047308346E+08, -1.157744916207122E+08, 6.904167670559059E+07,
2460756.500000000, A.D. 2025-Mar-22 00:00:00.0000, 5.000678694305485E+08, -1.070044861082217E+08, 6.858538474106342E+07,
2460763.500000000, A.D. 2025-Mar-29 00:00:00.0000, 5.027297117837724E+08, -9.819669929766256E+07, 6.810484887845905E+07,
2460770.500000000, A.D. 2025-Apr-05 00:00:00.0000, 5.052146844871821E+08, -8.935439536821215E+07, 6.760034665987542E+07,
2460777.500000000, A.D. 2025-Apr-12 00:00:00.0000, 5.075226858569034E+08, -8.048081910253504E+07, 6.707215926801077E+07,
2460784.500000000, A.D. 2025-Apr-19 00:00:00.0000, 5.096536590632145E+08, -7.157919574645576E+07, 6.652057141711427E+07,
2460791.500000000, A.D. 2025-Apr-26 00:00:00.0000, 5.116075912526864E+08, -6.265273098627311E+07, 6.594587125545545E+07,
2460798.500000000, A.D. 2025-May-03 00:00:00.0000, 5.133845126712383E+08, -5.370461102261599E+07, 6.534835027008696E+07,
2460805.500000000, A.D. 2025-May-10 00:00:00.0000, 5.149844958165163E+08, -4.473800273031898E+07, 6.472830319167873E+07,
2460812.500000000, A.D. 2025-May-17 00:00:00.0000, 5.164076546561805E+08, -3.575605394366452E+07, 6.408602789244969E+07,
2460819.500000000, A.D. 2025-May-24 00:00:00.0000, 5.176541440857012E+08, -2.676189392002090E+07, 6.342182525652757E+07,
2460826.500000000, A.D. 2025-May-31 00:00:00.0000, 5.187241600425804E+08, -1.775863366942926E+07, 6.273599900944552E+07,
2460833.500000000, A.D. 2025-Jun-07 00:00:00.0000, 5.196179398752051E+08, -8.749364943203382E+06, 6.202885564174161E+07,
2460840.500000000, A.D. 2025-Jun-14 00:00:00.0000, 5.203357606025350E+08, 2.628414536753558E+05, 6.130070458930264E+07,
2460847.500000000, A.D. 2025-Jun-21 00:00:00.0000, 5.208779362823603E+08, 9.274934755551348E+06, 6.055185829170543E+07,
2460854.500000000, A.D. 2025-Jun-28 00:00:00.0000, 5.212448176153581E+08, 1.828388249962845E+07, 5.978263198548769E+07,
2460861.500000000, A.D. 2025-Jul-05 00:00:00.0000, 5.214367922670924E+08, 2.728667011772488E+07, 5.899334354739589E+07,
2460868.500000000, A.D. 2025-Jul-12 00:00:00.0000, 5.214542847163123E+08, 3.628030105195256E+07, 5.818431343088247E+07,
2460875.500000000, A.D. 2025-Jul-19 00:00:00.0000, 5.212977558181964E+08, 4.526179682013451E+07, 5.735586463122791E+07,
2460882.500000000, A.D. 2025-Jul-26 00:00:00.0000, 5.209677022912407E+08, 5.422819697558679E+07, 5.650832265512396E+07,
2460889.500000000, A.D. 2025-Aug-02 00:00:00.0000, 5.204646561921583E+08, 6.317655898460434E+07, 5.564201549033430E+07,
2460896.500000000, A.D. 2025-Aug-09 00:00:00.0000, 5.197891844018877E+08, 7.210395800900336E+07, 5.475727357219866E+07,
2460903.500000000, A.D. 2025-Aug-16 00:00:00.0000, 5.189418882001192E+08, 8.100748653225322E+07, 5.385442973509333E+07,
2460910.500000000, A.D. 2025-Aug-23 00:00:00.0000, 5.179234032216408E+08, 8.988425384671052E+07, 5.293381912371226E+07,
2460917.500000000, A.D. 2025-Aug-30 00:00:00.0000, 5.167344001232832E+08, 9.873138611647455E+07, 5.199577909247778E+07,
2460924.500000000, A.D. 2025-Sep-06 00:00:00.0000, 5.153755845426282E+08, 1.075460280172081E+08, 5.104064930502583E+07,
2460931.500000000, A.D. 2025-Sep-13 00:00:00.0000, 5.138476946784819E+08, 1.163253434713087E+08, 5.006877198456500E+07,
2460938.500000000, A.D. 2025-Sep-20 00:00:00.0000, 5.121514997669162E+08, 1.250665138338728E+08, 4.908049188066394E+07,
2460945.500000000, A.D. 2025-Sep-27 00:00:00.0000, 5.102878005099621E+08, 1.337667366409865E+08, 4.807615610938019E+07,
2460952.500000000, A.D. 2025-Oct-04 00:00:00.0000, 5.082574294388586E+08, 1.424232254604560E+08, 4.705611409562542E+07,
2460959.500000000, A.D. 2025-Oct-11 00:00:00.0000, 5.060612508374338E+08, 1.510332099029848E+08, 4.602071757492013E+07,
2460966.500000000, A.D. 2025-Oct-18 00:00:00.0000, 5.037001605086036E+08, 1.595939355204107E+08, 4.497032060598410E+07,
2460973.500000000, A.D. 2025-Oct-25 00:00:00.0000, 5.011750855228580E+08, 1.681026636032018E+08, 4.390527958209780E+07,
2460980.500000000, A.D. 2025-Nov-01 00:00:00.0000, 4.984869839876487E+08, 1.765566708940869E+08, 4.282595323870204E+07,
2460987.500000000, A.D. 2025-Nov-08 00:00:00.0000, 4.956368448719847E+08, 1.849532491879078E+08, 4.173270265132286E+07,
2460994.500000000, A.D. 2025-Nov-15 00:00:00.0000, 4.926256880341867E+08, 1.932897047605397E+08, 4.062589120529322E+07,
2461001.500000000, A.D. 2025-Nov-22 00:00:00.0000, 4.894545648556208E+08, 2.015633578479096E+08, 3.950588451805520E+07,
2461008.500000000, A.D. 2025-Nov-29 00:00:00.0000, 4.861245593264654E+08, 2.097715433106465E+08, 3.837305042041577E+07,
2461015.500000000, A.D. 2025-Dec-06 00:00:00.0000, 4.826367873050535E+08, 2.179116123498234E+08, 3.722775919427565E+07,
2461022.500000000, A.D. 2025-Dec-13 00:00:00.0000, 4.789923943853956E+08, 2.259809319053138E+08, 3.607038375170569E+07,
2461029.500000000, A.D. 2025-Dec-20 00:00:00.0000, 4.751925558668096E+08, 2.339768827601971E+08, 3.490129951836607E+07,
2461036.500000000, A.D. 2025-Dec-27 00:00:00.0000, 4.712384777508077E+08, 2.418968589428287E+08, 3.372088433115076E+07,
2461043.500000000, A.D. 2026-Jan-03 00:00:00.0000, 4.671313973052052E+08, 2.497382678122568E+08, 3.252951843344906E+07,
2461050.500000000, A.D. 2026-Jan-10 00:00:00.0000, 4.628725833049196E+08, 2.574985301495590E+08, 3.132758450245376E+07,
2461057.500000000, A.D. 2026-Jan-17 00:00:00.0000, 4.584633361817963E+08, 2.651750801650592E+08, 3.011546767969839E+07,
2461064.500000000, A.D. 2026-Jan-24 00:00:00.0000, 4.539049881611551E+08, 2.727653654457009E+08, 2.889355559954864E+07,
2461071.500000000, A.D. 2026-Jan-31 00:00:00.0000, 4.491989034082768E+08, 2.802668468368865E+08, 2.766223841292803E+07,
2461078.500000000, A.D. 2026-Feb-07 00:00:00.0000, 4.443464782462415E+08, 2.876769982032635E+08, 2.642190879601680E+07,
2461085.500000000, A.D. 2026-Feb-14 00:00:00.0000, 4.393491416983497E+08, 2.949933060549636E+08, 2.517296191952570E+07,
2461092.500000000, A.D. 2026-Feb-21 00:00:00.0000, 4.342083567429454E+08, 3.022132696175590E+08, 2.391579539012976E+07,
2461099.500000000, A.D. 2026-Feb-28 00:00:00.0000, 4.289256211950614E+08, 3.093344024997089E+08, 2.265080935767809E+07,
2461106.500000000, A.D. 2026-Mar-07 00:00:00.0000, 4.235024661553072E+08, 3.163542340098721E+08, 2.137840681767924E+07,
2461113.500000000, A.D. 2026-Mar-14 00:00:00.0000, 4.179404548027066E+08, 3.232703077908843E+08, 2.009899366396658E+07,
2461120.500000000, A.D. 2026-Mar-21 00:00:00.0000, 4.122411833145653E+08, 3.300801806698829E+08, 1.881297856462324E+07,
2461127.500000000, A.D. 2026-Mar-28 00:00:00.0000, 4.064062819022219E+08, 3.367814227517694E+08, 1.752077292932844E+07,
2461134.500000000, A.D. 2026-Apr-04 00:00:00.0000, 4.004374153573031E+08, 3.433716177912929E+08, 1.622279094462231E+07,
2461141.500000000, A.D. 2026-Apr-11 00:00:00.0000, 3.943362833814810E+08, 3.498483634852664E+08, 1.491944962274225E+07,
2461148.500000000, A.D. 2026-Apr-18 00:00:00.0000, 3.881046208589138E+08, 3.562092716799723E+08, 1.361116884913574E+07,
2461155.500000000, A.D. 2026-Apr-25 00:00:00.0000, 3.817441981177894E+08, 3.624519685100955E+08, 1.229837142589216E+07,
2461162.500000000, A.D. 2026-May-02 00:00:00.0000, 3.752568212125130E+08, 3.685740944408190E+08, 1.098148310601632E+07,
2461169.500000000, A.D. 2026-May-09 00:00:00.0000, 3.686443323519012E+08, 3.745733041478405E+08, 9.660932601764262E+06,
2461176.500000000, A.D. 2026-May-16 00:00:00.0000, 3.619086108519880E+08, 3.804472663744936E+08, 8.337151543636233E+06,
2461183.500000000, A.D. 2026-May-23 00:00:00.0000, 3.550515746656264E+08, 3.861936647886021E+08, 7.010574468625009E+06,
2461190.500000000, A.D. 2026-May-30 00:00:00.0000, 3.480751804092675E+08, 3.918102001582363E+08, 5.681639054226547E+06,
2461197.500000000, A.D. 2026-Jun-06 00:00:00.0000, 3.409814215680609E+08, 3.972945905742692E+08, 4.350786359728694E+06,
2461204.500000000, A.D. 2026-Jun-13 00:00:00.0000, 3.337723285458894E+08, 4.026445699209427E+08, 3.018460754574418E+06,
2461211.500000000, A.D. 2026-Jun-20 00:00:00.0000, 3.264499700594081E+08, 4.078578875209380E+08, 1.685109818388909E+06,
2461218.500000000, A.D. 2026-Jun-27 00:00:00.0000, 3.190164541765863E+08, 4.129323086154726E+08, 3.511843402381241E+05,
2461225.500000000, A.D. 2026-Jul-04 00:00:00.0000, 3.114739289987238E+08, 4.178656149056243E+08, -9.828616465962827E+05,
2461232.500000000, A.D. 2026-Jul-11 00:00:00.0000, 3.038245832392238E+08, 4.226556050242035E+08, -2.316570828811467E+06,
2461239.500000000, A.D. 2026-Jul-18 00:00:00.0000, 2.960706467912011E+08, 4.273000949651106E+08, -3.649482583073974E+06,
2461246.500000000, A.D. 2026-Jul-25 00:00:00.0000, 2.882143913076637E+08, 4.317969184740970E+08, -4.981132954220474E+06,
2461253.500000000, A.D. 2026-Aug-01 00:00:00.0000, 2.802581308415794E+08, 4.361439273540816E+08, -6.311054650377780E+06,
2461260.500000000, A.D. 2026-Aug-08 00:00:00.0000, 2.722042227599005E+08, 4.403389916506259E+08, -7.638777077963084E+06,
2461267.500000000, A.D. 2026-Aug-15 00:00:00.0000, 2.640550693460480E+08, 4.443800001696638E+08, -8.963826418157130E+06,
2461274.500000000, A.D. 2026-Aug-22 00:00:00.0000, 2.558131193293831E+08, 4.482648625497422E+08, -1.028572557560554E+07,
2461281.500000000, A.D. 2026-Aug-29 00:00:00.0000, 2.474808670506625E+08, 4.519915115160359E+08, -1.160399390175077E+07,
2461288.500000000, A.D. 2026-Sep-05 00:00:00.0000, 2.390608513948767E+08, 4.555579024503008E+08, -1.291814712290549E+07,
2461295.500000000, A.D. 2026-Sep-12 00:00:00.0000, 2.305556569463609E+08, 4.589620127754068E+08, -1.422769749460617E+07,
$$EOE